[{"OBJECT_NAME":"GAOFEN-9 05","OBJECT_ID":"2020-058A","EPOCH":"2026-03-10T00:01:50.876256","MEAN_MOTION":15.30293976,"ECCENTRICITY":0.0010522,"INCLINATION":97.2228,"RA_OF_ASC_NODE":111.963,"ARG_OF_PERICENTER":91.0204,"MEAN_ANOMALY":269.2242,"EPHEMERIS_TYPE":0,"CLASSIFICATION_TYPE":"U","NORAD_CAT_ID":46232,"ELEMENT_SET_NO":999,"REV_AT_EPOCH":30843,"BSTAR":0.00025120304,"MEAN_MOTION_DOT":7.299e-5,"MEAN_MOTION_DDOT":0},{"OBJECT_NAME":"STARLINK-34185","OBJECT_ID":"2025-144W","EPOCH":"2026-03-09T13:09:33.638400","MEAN_MOTION":15.30178478,"ECCENTRICITY":0.00011685,"INCLINATION":53.159,"RA_OF_ASC_NODE":181.4499,"ARG_OF_PERICENTER":63.7059,"MEAN_ANOMALY":296.4061,"EPHEMERIS_TYPE":0,"CLASSIFICATION_TYPE":"U","NORAD_CAT_ID":64744,"ELEMENT_SET_NO":999,"REV_AT_EPOCH":3969,"BSTAR":0.0014184598,"MEAN_MOTION_DOT":0.0004186,"MEAN_MOTION_DDOT":0}]
